CAS-2T & KS-1Q          
1 41847U 16066G   21122.76664638  .00000083  00000-0  23050-4 0  9992
2 41847  98.6053 181.6927 0365214 356.9579   2.9387 14.38181954235313
NAYIF-1 (EO-88)         
1 42017U 17008BX  21122.91871257  .00002686  00000-0  10113-3 0  9999
2 42017  97.3183 191.3334 0004232 268.5240  91.5515 15.27964132234307
ZHUHAI-1 02 (CAS-4B)    
1 42759U 17034B   21123.05749486  .00000452  00000-0  40562-4 0  9996
2 42759  43.0173  70.6450 0010047 246.1817 215.0577 15.10178735214282
ZHUHAI-1 01 (CAS-4A)    
1 42761U 17034D   21123.05079199  .00000502  00000-0  43464-4 0  9996
2 42761  43.0180  69.7692 0010414 247.3282 212.7083 15.10260805214283
MAX VALIER SAT          
1 42778U 17036P   21122.72303481  .00001645  00000-0  71741-4 0  9991
2 42778  97.2596 172.8251 0011211 346.4836  13.6099 15.23481327214320
RADFXSAT (FOX-1B)       
1 43017U 17073E   21123.15679623  .00001032  00000-0  83712-4 0  9992
2 43017  97.7099  28.9354 0256728  88.1621 274.8972 14.79466402186428
FOX-1D (AO-92)          
1 43137U 18004AC  21123.19480065  .00001778  00000-0  73811-4 0  9990
2 43137  97.4084 197.6880 0009235  21.5167 338.6457 15.25119651183758
DIWATA-2B               
1 43678U 18084H   21123.10966087  .00000394  00000-0  44812-4 0  9994
2 43678  97.9167 248.1741 0009495 192.2896 167.8110 14.91740715136676
ES'HAIL 2               
1 43700U 18090A   21122.86716087  .00000129  00000-0  00000-0 0  9995
2 43700   0.0326  91.1964 0001249 322.7591 145.0253  1.00272661  8915
FOX-1CLIFF (AO-95)      
1 43770U 18099N   21122.87912026  .00000938  00000-0  90166-4 0  9997
2 43770  97.6673 194.0678 0013900 204.0196 156.0378 14.95283713131649
ITASAT 1                
1 43786U 18099AE  21122.94117461  .00000856  00000-0  82172-4 0  9999
2 43786  97.6691 194.7747 0014780 197.1009 162.9716 14.95582031131683
JY1SAT (JO-97)          
1 43803U 18099AX  21122.64481889  .00000093  00000-0  13445-4 0  9994
2 43803  97.6650 194.2424 0014622 198.6904 161.3782 14.95819802131641
UWE-4                   
1 43880U 18111E   21122.72601353  .00000103  00000-0  14023-4 0  9998
2 43880  97.6894  31.2340 0010840 257.0423 102.9589 14.96824752128246
PSAT2 (NO-104)          
1 44354U 19036R   21123.18752914  .00014264  00000-0  18891-3 0  9992
2 44354  28.5281  68.5868 0329362 145.6183 216.6192 15.12548278102106
BRICSAT2 (NO-103)       
1 44355U 19036S   21122.89162735  .00025266  00000-0  28434-3 0  9994
2 44355  28.5249  32.5546 0272232 204.3607 154.3904 15.27258651102458
JAISAT-1                
1 44419U 19038F   21122.89381248  .00001510  00000-0  87234-4 0  9999
2 44419  97.5847  87.7793 0022719 107.8563 252.5149 15.13642666100904
DUCHIFAT-3              
1 44854U 19089C   21122.97949746  .00000757  00000-0  66919-4 0  9999
2 44854  36.9670   9.5475 0006638 133.4038 226.7256 14.99453480 76272
RS-44 & BREEZE-KM R/B   
1 44909U 19096E   21122.96846822  .00000006  00000-0 -17865-4 0  9992
2 44909  82.5184 143.0376 0217034 199.1661 160.1183 12.79709789 63008
ORBITAL FACTORY 2 (OF-2)
1 45113U 19071C   21122.78613189  .00004845  00000-0  14908-3 0  9999
2 45113  51.6418 258.8855 0012367 127.7158 232.4948 15.35477580 70152
HUSKYSAT-1 (HO-107)     
1 45119U 19071J   21122.79863482  .00003683  00000-0  11585-3 0  9996
2 45119  51.6413 258.2157 0011793 124.1945 236.0157 15.35526057 70155
BY70-2                  
1 45857U 20042B   21123.18673118  .00001569  00000-0  23017-3 0  9998
2 45857  97.9841 199.4054 0010817   9.9661 350.1765 14.76909864 44862
SALSAT                  
1 46495U 20068K   21122.93696592  .00000080  00000-0  10460-4 0  9994
2 46495  97.6918  60.7112 0015176 221.8329 138.1733 15.03428470 32492
BY70-3                  
1 46839U 20079N   21123.22610267  .00003339  00000-0  10575-3 0  9992
2 46839  97.2417 197.9841 0007507  23.5707  51.6812 15.33406439 27273
RADFXSAT-2 (AO-109)     
1 47311U 21002C   21123.21413510  .00001958  00000-0  97416-4 0  9991
2 47311  60.6838 100.5259 0030203  22.6990 337.5425 15.21512087 15992
UVSQ-SAT                
1 47438U 21006AB  21122.88292964  .00001068  00000-0  64061-4 0  9997
2 47438  97.4909 184.9158 0011222 253.0890 106.9111 15.13042541 15165
DIY-1 (ARDUIQUBE)       
1 47963U 21022AH  21123.14854629  .00003176  00000-0  21501-3 0  9993
2 47963  97.5610  26.2836 0021329  98.1563 262.2085 15.07034168  5077
